{
  "type": "FeatureCollection",
  "features": [
    {
      "type": "Feature",
      "properties": {
        "norad_id": 30380,
        "name": "FENGYUN 1C DEB",
        "group": "fengyun-1c-debris",
        "lat": -15.127861452568622,
        "lon": -137.75067754551662,
        "alt_km": 602.6579945245758,
        "timestamp": "2025-12-22T11:33:20.715355+00:00",
        "meta_object_name": "FENGYUN 1C DEB",
        "meta_object_id": "1999-025ACT",
        "meta_epoch": "2025-12-21T14:47:38.746752",
        "meta_mean_motion": 14.50689715,
        "meta_eccentricity": 0.0177926,
        "meta_inclination": 98.9132,
        "meta_ra_of_asc_node": 43.7648,
        "meta_arg_of_pericenter": 190.6372,
        "meta_mean_anomaly": 169.1038,
        "meta_ephemeris_type": 0,
        "meta_classification_type": "U",
        "meta_norad_cat_id": 30380,
        "meta_element_set_no": 999,
        "meta_rev_at_epoch": 99694,
        "meta_bstar": 0.00020362,
        "meta_mean_motion_dot": 9.21e-06,
        "meta_mean_motion_ddot": 0,
        "tle_line1": "1 30380U 99025ACT 25355.61642068  .00000921  00000+0  20362-3 0  9999",
        "tle_line2": "2 30380  98.9132  43.7648 0177926 190.6372 169.1038 14.50689715996941"
      },
      "geometry": {
        "type": "Point",
        "coordinates": [
          -137.75067754551662,
          -15.127861452568622
        ]
      }
    },
    {
      "type": "Feature",
      "properties": {
        "norad_id": 30381,
        "name": "FENGYUN 1C DEB",
        "group": "fengyun-1c-debris",
        "lat": -77.2271222755182,
        "lon": 74.50300913148476,
        "alt_km": 881.1771895237098,
        "timestamp": "2025-12-22T11:33:20.715366+00:00",
        "meta_object_name": "FENGYUN 1C DEB",
        "meta_object_id": "1999-025ACU",
        "meta_epoch": "2025-12-19T00:39:43.490880",
        "meta_mean_motion": 14.12964402,
        "meta_eccentricity": 0.00542006,
        "meta_inclination": 98.8127,
        "meta_ra_of_asc_node": 27.9215,
        "meta_arg_of_pericenter": 58.3524,
        "meta_mean_anomaly": 302.292,
        "meta_ephemeris_type": 0,
        "meta_classification_type": "U",
        "meta_norad_cat_id": 30381,
        "meta_element_set_no": 999,
        "meta_rev_at_epoch": 92255,
        "meta_bstar": 0.00085196275,
        "meta_mean_motion_dot": 1.567e-05,
        "meta_mean_motion_ddot": 0,
        "tle_line1": "1 30381U 99025ACU 25353.02758670  .00001567  00000+0  85196-3 0  9993",
        "tle_line2": "2 30381  98.8127  27.9215 0054200  58.3524 302.2920 14.12964402922550"
      },
      "geometry": {
        "type": "Point",
        "coordinates": [
          74.50300913148476,
          -77.2271222755182
        ]
      }
    },
    {
      "type": "Feature",
      "properties": {
        "norad_id": 30382,
        "name": "FENGYUN 1C DEB",
        "group": "fengyun-1c-debris",
        "lat": -22.467850863858395,
        "lon": 38.10238235914191,
        "alt_km": 703.0946698713906,
        "timestamp": "2025-12-22T11:33:20.715375+00:00",
        "meta_object_name": "FENGYUN 1C DEB",
        "meta_object_id": "1999-025ACV",
        "meta_epoch": "2025-12-22T01:41:09.249216",
        "meta_mean_motion": 14.25327482,
        "meta_eccentricity": 0.0154381,
        "meta_inclination": 98.4984,
        "meta_ra_of_asc_node": 34.1587,
        "meta_arg_of_pericenter": 329.6101,
        "meta_mean_anomaly": 58.5357,
        "meta_ephemeris_type": 0,
        "meta_classification_type": "U",
        "meta_norad_cat_id": 30382,
        "meta_element_set_no": 999,
        "meta_rev_at_epoch": 97668,
        "meta_bstar": 0.00075786,
        "meta_mean_motion_dot": 1.977e-05,
        "meta_mean_motion_ddot": 0,
        "tle_line1": "1 30382U 99025ACV 25356.07024594  .00001977  00000+0  75786-3 0  9992",
        "tle_line2": "2 30382  98.4984  34.1587 0154381 329.6101  58.5357 14.25327482976689"
      },
      "geometry": {
        "type": "Point",
        "coordinates": [
          38.10238235914191,
          -22.467850863858395
        ]
      }
    },
    {
      "type": "Feature",
      "properties": {
        "norad_id": 30385,
        "name": "FENGYUN 1C DEB",
        "group": "fengyun-1c-debris",
        "lat": 44.77867138968796,
        "lon": 8.61864678615209,
        "alt_km": 830.9948824760613,
        "timestamp": "2025-12-22T11:33:20.715385+00:00",
        "meta_object_name": "FENGYUN 1C DEB",
        "meta_object_id": "1999-025ACY",
        "meta_epoch": "2025-12-21T07:16:26.256288",
        "meta_mean_motion": 14.38803249,
        "meta_eccentricity": 0.0124668,
        "meta_inclination": 99.0812,
        "meta_ra_of_asc_node": 16.504,
        "meta_arg_of_pericenter": 264.2075,
        "meta_mean_anomaly": 160.2136,
        "meta_ephemeris_type": 0,
        "meta_classification_type": "U",
        "meta_norad_cat_id": 30385,
        "meta_element_set_no": 999,
        "meta_rev_at_epoch": 98892,
        "meta_bstar": 0.00022938,
        "meta_mean_motion_dot": 7.18e-06,
        "meta_mean_motion_ddot": 0,
        "tle_line1": "1 30385U 99025ACY 25355.30308167  .00000718  00000+0  22938-3 0  9994",
        "tle_line2": "2 30385  99.0812  16.5040 0124668 264.2075 160.2136 14.38803249988926"
      },
      "geometry": {
        "type": "Point",
        "coordinates": [
          8.61864678615209,
          44.77867138968796
        ]
      }
    },
    {
      "type": "Feature",
      "properties": {
        "norad_id": 30386,
        "name": "FENGYUN 1C DEB",
        "group": "fengyun-1c-debris",
        "lat": 81.07023977894491,
        "lon": 147.38470520882206,
        "alt_km": 864.4109855208862,
        "timestamp": "2025-12-22T11:33:20.715395+00:00",
        "meta_object_name": "FENGYUN 1C DEB",
        "meta_object_id": "1999-025ACZ",
        "meta_epoch": "2025-12-22T04:45:23.527008",
        "meta_mean_motion": 13.55601964,
        "meta_eccentricity": 0.0304203,
        "meta_inclination": 98.6909,
        "meta_ra_of_asc_node": 250.3758,
        "meta_arg_of_pericenter": 131.1263,
        "meta_mean_anomaly": 21.2108,
        "meta_ephemeris_type": 0,
        "meta_classification_type": "U",
        "meta_norad_cat_id": 30386,
        "meta_element_set_no": 999,
        "meta_rev_at_epoch": 92957,
        "meta_bstar": 0.0018147,
        "meta_mean_motion_dot": 1.664e-05,
        "meta_mean_motion_ddot": 0,
        "tle_line1": "1 30386U 99025ACZ 25356.19818897  .00001664  00000+0  18147-2 0  9996",
        "tle_line2": "2 30386  98.6909 250.3758 0304203 131.1263  21.2108 13.55601964929578"
      },
      "geometry": {
        "type": "Point",
        "coordinates": [
          147.38470520882206,
          81.07023977894491
        ]
      }
    },
    {
      "type": "Feature",
      "properties": {
        "norad_id": 30387,
        "name": "FENGYUN 1C DEB",
        "group": "fengyun-1c-debris",
        "lat": 61.05861190571779,
        "lon": -152.74940368716977,
        "alt_km": 835.3802519855062,
        "timestamp": "2025-12-22T11:33:20.715405+00:00",
        "meta_object_name": "FENGYUN 1C DEB",
        "meta_object_id": "1999-025ADA",
        "meta_epoch": "2025-12-21T18:52:21.179136",
        "meta_mean_motion": 14.15061179,
        "meta_eccentricity": 0.0001173,
        "meta_inclination": 98.6558,
        "meta_ra_of_asc_node": 10.5861,
        "meta_arg_of_pericenter": 92.312,
        "meta_mean_anomaly": 86.18,
        "meta_ephemeris_type": 0,
        "meta_classification_type": "U",
        "meta_norad_cat_id": 30387,
        "meta_element_set_no": 999,
        "meta_rev_at_epoch": 97452,
        "meta_bstar": 0.00020803,
        "meta_mean_motion_dot": 3.6e-06,
        "meta_mean_motion_ddot": 0,
        "tle_line1": "1 30387U 99025ADA 25355.78635624  .00000360  00000+0  20803-3 0  9991",
        "tle_line2": "2 30387  98.6558  10.5861 0001173  92.3120  86.1800 14.15061179974529"
      },
      "geometry": {
        "type": "Point",
        "coordinates": [
          -152.74940368716977,
          61.05861190571779
        ]
      }
    },
    {
      "type": "Feature",
      "properties": {
        "norad_id": 30388,
        "name": "FENGYUN 1C DEB",
        "group": "fengyun-1c-debris",
        "lat": -17.688887866499265,
        "lon": -165.88904264426995,
        "alt_km": 983.5199352000054,
        "timestamp": "2025-12-22T11:33:20.715416+00:00",
        "meta_object_name": "FENGYUN 1C DEB",
        "meta_object_id": "1999-025ADB",
        "meta_epoch": "2025-12-21T17:58:11.579232",
        "meta_mean_motion": 14.197897,
        "meta_eccentricity": 0.022175,
        "meta_inclination": 98.5985,
        "meta_ra_of_asc_node": 16.1645,
        "meta_arg_of_pericenter": 36.8346,
        "meta_mean_anomaly": 17.0772,
        "meta_ephemeris_type": 0,
        "meta_classification_type": "U",
        "meta_norad_cat_id": 30388,
        "meta_element_set_no": 999,
        "meta_rev_at_epoch": 97560,
        "meta_bstar": 0.00037691,
        "meta_mean_motion_dot": 9.76e-06,
        "meta_mean_motion_ddot": 0,
        "tle_line1": "1 30388U 99025ADB 25355.74874513  .00000976  00000+0  37691-3 0  9996",
        "tle_line2": "2 30388  98.5985  16.1645 0221750  36.8346  17.0772 14.19789700975605"
      },
      "geometry": {
        "type": "Point",
        "coordinates": [
          -165.88904264426995,
          -17.688887866499265
        ]
      }
    }
  ]
}